EVENT_NAME: NONAME
EVENT_ID: IT-2012-0059
EVENT_DATE_YYYYMMDD: 20120927
EVENT_TIME_HHMMSS: 010822
EVENT_LATITUDE_DEGREE: 41.1510
EVENT_LONGITUDE_DEGREE: 14.8730
EVENT_DEPTH_KM: 11.4
HYPOCENTER_REFERENCE: ISIDe
MAGNITUDE_W: 
MAGNITUDE_W_REFERENCE: 
MAGNITUDE_L: 4.1
MAGNITUDE_L_REFERENCE: ISIDe
FOCAL_MECHANISM: 
NETWORK: IT
STATION_CODE: SCV
STATION_NAME: S. MARCO DEI CAVOTI
STATION_LATITUDE_DEGREE: 41.306362
STATION_LONGITUDE_DEGREE: 14.880446
STATION_ELEVATION_M: 715
LOCATION: 
VS30_M/S: 
SITE_CLASSIFICATION_EC8: B*
MORPHOLOGIC_CLASSIFICATION: 
EPICENTRAL_DISTANCE_KM: 17.3
EARTHQUAKE_BACKAZIMUTH_DEGREE: 182.1
DATE_TIME_FIRST_SAMPLE_YYYYMMDD_HHMMSS: 20120927_010812.000
DATE_TIME_FIRST_SAMPLE_PRECISION: milliseconds
SAMPLING_INTERVAL_S: 0.005000
NDATA: 10997
DURATION_S: 54.980000
STREAM: HGN
UNITS: cm/s^2
INSTRUMENT: sensor = Unknown [Unknown] | digitizer = Unknown [Unknown]
INSTRUMENT_ANALOG/DIGITAL: D
INSTRUMENTAL_FREQUENCY_HZ: 
INSTRUMENTAL_DAMPING: 
FULL_SCALE_G: 
N_BIT_DIGITAL_CONVERTER: 
PGA_CM/S^2: 12.181343
TIME_PGA_S: 18.940000
BASELINE_CORRECTION: BASELINE REMOVED
FILTER_TYPE: BUTTERWORTH
FILTER_ORDER: 2
LOW_CUT_FREQUENCY_HZ: 0.100
HIGH_CUT_FREQUENCY_HZ: 40.000
LATE/NORMAL_TRIGGERED: NT
DATABASE_VERSION: ITACA 2.0
HEADER_FORMAT: DYNA 1.0
DATA_TYPE: ACCELERATION
PROCESSING: manual (Paolucci et al., 2011)
DATA_TIMESTAMP_YYYYMMDD_HHMMSS: 20140120_144015.687
USER1: /home/dyna/processing-itaca/processing.py /var/www/processing/tmp/fpacor//IT.SCV..HGE.D.20120927.010822.X.ACC.ASC /var/www/processing/tmp/fpacor//IT.SCV..HGN.D.20120927.010822.X.ACC.ASC /var/www/processing/tmp/fpacor//IT.SCV..HGZ.D.20120927.010822.X.ACC.ASC --tmp /var/www/processing/tmp/fpacor/ --le 0.1 --he 40.000 --ln 0.1 --hn 40.000 --lz 0.1 --hz 40.000 --fo 2 --ca 0 --cz 0 --ta 5 --tz 5 --mf 1 --tr NT
USER2: 
USER3: 
USER4: 
[...]
0.000547
-0.000324
0.000934
0.002769
0.002102
0.000468
0.000823
0.001698
0.000446
-0.001738
-0.002612
-0.002251
-0.000958
0.001337
0.003266
0.003395
0.002321
0.001490
0.001072
0.000417
-0.000020
0.001127
0.003360
0.003851
0.001916
0.000335
0.000290
-0.000068
-0.001088
-0.000474
0.002061
0.003188
0.001381
-0.000280
0.000368
0.001256
0.000625
-0.000203
0.000088
0.000400
-0.000400
-0.000718
0.000532
0.001026
-0.000300
-0.001182
-0.000678
-0.000232
-0.000774
-0.001429
-0.000626
0.001218
0.001872
0.000916
0.000232
0.000713
0.001355
0.001723
0.002205
0.002073
0.000504
-0.001075
-0.000639
0.000570
-0.000137
-0.001495
-0.000813
0.000542
0.000346
-0.000441
-0.000532
-0.000400
-0.000333
0.000420
0.002070
0.003086
0.002117
0.000466
0.000049
0.000467
0.000541
0.000433
0.000460
-0.000342
-0.002372
-0.003616
-0.002337
0.000062
0.001257
0.001077
0.000713
0.000514
0.000135
-0.000274
-0.000224
0.000064
-0.000430
-0.001474
-0.001290
0.000483
0.002131
0.002182
0.001119
0.000625
0.001197
0.002185
0.002919
0.002238
0.000096
-0.000958
0.000370
0.001680
0.001111
0.000504
0.002195
0.004786
0.004887
0.002895
0.002115
0.002474
0.001988
0.001695
0.002612
0.002708
0.001414
0.001241
0.002741
0.003642
0.003074
0.002396
0.002474
0.002257
0.000936
0.000464
0.002634
0.005121
0.005103
0.004059
0.004052
0.003611
0.001684
0.000535
0.001354
0.001872
0.000813
-0.000009
0.000534
0.001184
0.000734
0.000007
0.000517
0.001626
0.002014
0.002339
0.003058
0.003270
0.003133
0.003772
0.004639
0.003926
0.001696
-0.000178
-0.000789
-0.000640
0.000025
0.001542
0.003007
0.002398
-0.000019
-0.001106
0.000976
0.004144
0.004986
0.003146
0.001059
-0.000087
-0.000502
0.000010
0.000822
0.000524
-0.000457
-0.000015
0.002179
0.003595
0.002328
0.000069
-0.000647
-0.000362
-0.000541
-0.000439
0.000457
0.000432
-0.000784
-0.000393
0.002160
0.003486
0.001904
-0.000066
0.000376
0.002396
0.003014
0.001728
0.000714
0.000845
0.000649
-0.000268
-0.000161
0.000801
0.000215
-0.001161
-0.000513
0.000934
0.000790
0.000512
0.001603
0.002501
0.001817
0.000778
0.001040
0.001662
0.001000
0.000401
0.001922
0.003850
0.003376
0.001839
0.001716
0.001822
0.000852
0.000705
0.002440
0.004040
0.003982
0.003362
0.003533
0.003323
0.001445
0.000417
0.002166
0.003584
0.002504
0.001267
0.001389
0.001112
-0.000649
-0.001711
-0.000141
0.002017
0.001871
0.000271
-0.000220
0.000443
0.001404
0.003390
0.005791
0.005859
0.003326
0.001089
0.000693
0.001116
0.001558
0.002587
0.004131
0.004470
0.003197
0.002524
0.003342
0.003671
0.002817
0.003004
0.005227
0.006928
0.005979
0.004265
0.004100
0.003968
0.001933
-0.000082
0.000426
0.002029
0.002120
0.001660
0.002387
0.002608
0.001064
0.000327
0.002305
0.004392
0.003532
0.001639
0.002162
0.004013
0.004225
0.003084
0.002744
0.003388
0.003674
0.003727
0.004031
0.003294
0.001364
0.000424
0.001043
0.001411
0.001169
0.002028
0.003509
0.002826
0.000219
-0.000923
0.000169
0.000411
-0.001500
-0.002600
-0.001025
0.000761
0.000762
0.000560
0.001043
0.000450
-0.001110
-0.000660
0.002357
0.004559
0.004080
0.003122
0.003309
0.003290
0.002209
0.001206
0.001285
0.001847
0.001963
0.002519
0.004275
0.005224
0.003772
0.001816
0.001658
0.002298
0.001567
0.000305
0.000455
0.000684
-0.000703
-0.001286
0.000948
0.002689
0.000806
-0.001455
0.000021
0.002490
0.001578
-0.000867
-0.001281
-0.000614
-0.001002
-0.001280
0.000211
0.002084
0.002408
0.001906
0.002584
0.003953
0.003401
0.001356
0.000979
0.002361
0.002957
0.002386
0.002086
0.002314
0.002276
0.002026
0.002350
0.002846
0.002509
0.001732
0.001067
0.000268
-0.000001
0.001018
0.002215
0.002252
0.001285
0.000258
-0.000180
-0.000590
-0.001725
-0.001956
0.000627
0.003417
0.002417
-0.000810
-0.001844
-0.000550
0.000082
-0.000693
-0.001159
-0.000523
0.000546
0.001657
0.002203
0.001351
-0.000030
-0.000010
0.001467
0.001854
-0.000232
-0.002080
-0.000810
0.002139
0.003611
0.003268
0.002721
0.002494
0.002240
0.002367
0.003096
0.002823
0.000856
-0.000241
0.001118
0.002524
0.001409
-0.001066
-0.001616
0.000475
0.002589
0.002963
0.002301
0.001658
0.001413
0.001366
0.001066
0.000446
0.000012
0.000077
0.000243
0.000217
-0.000162
-0.000763
-0.000493
0.000799
0.001776
0.002312
0.003607
0.005301
0.005155
0.003136
0.002127
0.002354
0.001446
-0.000018
-0.000218
-0.000119
-0.000908
-0.001824
-0.001698
-0.000248
0.001184
0.001442
0.001504
0.001932
0.002125
0.002551
0.003052
0.001540
-0.002094
-0.004664
-0.004450
-0.003244
-0.002822
-0.002549
-0.000940
0.001305
0.001497
-0.000664
-0.002380
-0.002541
-0.002481
-0.002257
-0.000919
0.000048
-0.002046
-0.006439
-0.009984
-0.011140
-0.008996
-0.003151
0.002822
0.002730
-0.005450
-0.016657
-0.024490
-0.028016
-0.029105
-0.025745
-0.015277
-0.002606
0.001933
-0.007689
-0.028607
-0.052006
-0.068592
-0.071886
-0.058798
-0.030763
0.003306
0.025215
0.014116
-0.035119
-0.096400
-0.124230
-0.092953
-0.025469
0.023405
0.016385
-0.033723
-0.081148
-0.089636
-0.056452
-0.010190
0.007319
-0.028817
-0.101995
-0.161810
-0.162543
-0.098428
-0.007083
0.058214
0.067069
0.030107
-0.020140
-0.059973
-0.082772
-0.086952
-0.070031
-0.040365
-0.023514
-0.038497
-0.066659
-0.061227
0.002047
0.088993
0.126463
0.059612
-0.100291
-0.271984
-0.347205
-0.260333
-0.044788
0.177520
0.282497
0.235037
0.102436
-0.017793
-0.078603
-0.094497
-0.092743
-0.078350
-0.051087
-0.031575
-0.043285
-0.075385
-0.089782
-0.070954
-0.047553
-0.049425
-0.060940
-0.040884
0.018541
0.078743
0.105938
0.111704
0.125992
0.142594
0.112532
-0.002185
-0.173134
-0.310695
-0.331309
-0.221727
-0.040041
0.135392
0.251003
0.286696
0.249008
0.168519
0.087410
0.029962
-0.010213
-0.041553
-0.044360
0.009551
0.107151
0.184154
0.176899
0.080294
-0.044376
-0.110047
-0.059630
0.091639
0.252734
0.310678
0.217151
0.038124
-0.089537
-0.071428
0.061793
0.180620
0.166515
0.011987
-0.173074
-0.254396
-0.177433
0.004058
0.175362
0.234454
0.152241
-0.004520
-0.109895
-0.073781
0.071510
0.187305
0.153317
-0.018318
-0.199810
-0.269937
-0.205047
-0.064445
0.076208
0.167043
0.188484
0.145865
0.068161
-0.003956
-0.043322
-0.044260
-0.001386
0.099515
0.244446
0.352807
0.316475
0.109655
-0.149425
-0.279021
-0.189426
0.041264
0.236645
0.264406
0.128944
-0.051197
-0.148417
-0.121421
-0.023211
0.069071
0.116699
0.123443
0.110776
0.099362
0.097038
0.090915
0.054007
-0.028965
-0.136504
-0.222018
-0.259890
-0.266947
-0.270266
-0.270771
-0.249964
-0.200334
-0.133929
-0.060425
0.030456
0.148187
0.258719
0.279862
0.144840
-0.117324
-0.375727
-0.492113
-0.426539
-0.247204
-0.052852
0.093981
0.171434
0.176024
0.116539
0.020037
-0.074571
-0.134645
-0.144134
-0.105500
-0.044354
-0.006952
-0.034780
-0.130886
-0.248908
-0.317509
-0.285866
-0.155352
0.025596
0.188548
0.273183
0.256917
0.176743
0.106365
0.081746
0.051805
-0.063081
-0.253727
-0.396942
-0.374480
-0.200862
-0.006792
0.094451
0.090443
0.023734
-0.080421
-0.203807
-0.284104
-0.230113
-0.014970
0.258038
0.413129
0.350262
0.140381
-0.037715
-0.057726
0.060693
0.202174
0.268689
0.236138
0.127580
-0.032393
-0.218418
-0.373418
-0.416778
-0.318371
-0.163692
-0.109671
-0.237624
-0.444786
-0.510908
-0.301741
0.092983
0.434760
0.543010
0.425820
0.235147
0.124430
0.146127
0.249047
0.338227
0.339531
0.235554
0.061881
-0.122403
-0.260632
-0.306332
-0.229435
-0.039559
0.192843
0.357463
0.370656
0.237965
0.060375
-0.027208
0.046468
0.228400
0.381119
0.392312
0.256155
0.066409
-0.061452
-0.073619
-0.003605
0.073465
0.113215
0.132976
0.174750
0.245837
0.301290
0.282751
0.170398
-0.004477
-0.191508
-0.352710
-0.459129
-0.483028
-0.422391
-0.321200
-0.237952
-0.189083
-0.135004
-0.031416
0.115075
0.255350
0.349539
0.392936
0.395547
0.353327
0.251580
0.095231
-0.077338
-0.216957
-0.292880
-0.300363
-0.256788
-0.198861
-0.165813
-0.161338
-0.134253
-0.023880
0.161133
0.326755
0.379405
0.327410
0.277324
0.318364
0.421334
0.464676
0.356045
0.123221
-0.105108
-0.203699
-0.147488
-0.018936
0.069770
0.064596
-0.003782
-0.072856
-0.126433
-0.218125
-0.416808
-0.723443
-1.034480
-1.192468
-1.093823
-0.772185
-0.387989
-0.125130
-0.073191
-0.187191
-0.336601
-0.381837
-0.239692
0.069858
0.424489
0.665577
0.686615
0.480085
0.125191
-0.255452
-0.545396
-0.678067
-0.656097
-0.537258
-0.398814
-0.294419
-0.227344
-0.164084
-0.069302
0.070504
0.235530
0.376230
0.442592
0.418719
0.334345
0.251348
0.227589
0.266151
0.290607
0.186014
-0.108880
-0.529254
-0.901661
-1.046929
-0.894920
-0.535488
-0.167833
0.026770
-0.004470
-0.178298
-0.359961
-0.450707
-0.414910
-0.268479
-0.074270
0.065477
0.055992
-0.117033
-0.356768
-0.507218
-0.449222
-0.181558
0.154420
0.341735
0.237235
-0.096464
-0.410687
-0.453670
-0.155031
0.348221
0.827825
1.086802
1.011873
0.598108
-0.008486
-0.513319
-0.608948
-0.190381
0.535752
1.175008
1.421118
1.254898
0.911609
0.678408
0.700961
0.921187
1.148491
1.187393
0.949376
0.509062
0.064801
-0.193640
-0.215513
-0.108075
-0.031427
-0.064864
-0.158122
-0.196267
-0.107026
0.079959
0.258366
0.332910
0.302786
0.263464
0.311859
0.436472
0.510612
0.418650
0.187128
-0.037946
-0.144038
-0.149177
-0.137935
-0.138276
-0.107032
-0.027752
0.035518
0.000580
-0.147309
-0.343943
-0.505744
-0.584078
-0.565708
-0.454853
-0.271237
-0.054178
0.136221
0.237492
0.225930
0.133154
0.015544
-0.081261
-0.135098
-0.152352
-0.167794
-0.217172
-0.291931
-0.335405
-0.305152
-0.232699
-0.204399
-0.280926
-0.437472
-0.572014
-0.569747
-0.387543
-0.104157
0.114612
0.125951
-0.085125
-0.392990
-0.624208
-0.677423
-0.575009
-0.421304
-0.312941
-0.271347
-0.249487
-0.200605
-0.135808
-0.115403
-0.194080
-0.377499
-0.616856
-0.834138
-0.967632
-1.004212
-0.957664
-0.827175
-0.605631
-0.326508
-0.078762
0.038382
-0.019186
-0.210511
-0.437137
-0.606235
-0.678214
-0.668645
-0.626770
-0.618606
-0.703781
-0.882112
-1.041931
-0.997968
-0.633496
-0.026297
0.571848
0.906266
0.908018
0.736751
0.640983
0.767220
1.078920
1.424940
1.663193
1.727247
1.619228
1.383451
1.091633
0.831940
0.685902
0.690859
0.813901
0.963875
1.030857
0.920738
0.580353
0.029517
-0.618483
-1.185888
-1.512832
-1.544026
-1.343568
-1.025159
-0.676852
-0.349527
-0.091121
0.042784
0.027344
-0.094284
-0.220644
-0.240945
-0.097759
0.166397
0.415549
0.487069
0.279899
-0.183301
-0.750033
-1.198407
-1.341787
-1.122407
-0.641803
-0.108340
0.271671
0.391856
0.283899
0.096104
0.017737
0.164736
0.494903
0.832495
1.000159
0.950723
0.779649
0.617698
0.531025
0.518524
0.554545
0.604731
0.632473
0.626949
0.618985
0.648675
0.717674
0.780718
0.775930
0.658695
0.425589
0.126354
-0.147169
-0.301855
-0.302572
-0.210367
-0.162551
-0.299643
-0.670727
-1.175904
-1.614907
-1.829758
-1.818564
-1.709087
-1.630842
-1.620631
-1.622775
-1.542397
-1.306775
-0.923471
-0.497100
-0.155960
0.056039
0.198317
0.343544
0.490548
0.584872
0.618693
0.673413
0.835940
1.090241
1.324367
1.446722
1.468077
1.457076
1.444903
1.414527
1.378871
1.410458
1.550251
1.708936
1.709750
1.456664
1.052342
0.734181
0.694402
0.954489
1.371606
1.736155
1.893964
1.826125
1.633348
1.438869
1.289293
1.134030
0.896096
0.558901
0.184372
-0.143326
-0.384291
-0.554748
-0.687756
-0.803421
-0.913665
-1.034333
-1.187611
-1.391766
-1.637926
-1.868724
-1.978167
-1.855196
-1.466815
-0.911704
-0.379264
-0.036186
0.076455
0.067229
0.122956
0.376998
0.803352
1.230379
1.473843
1.476782
1.352308
1.312339
1.525362
1.994768
2.557540
3.005764
3.225846
3.242614
3.149841
3.019966
2.874690
2.695480
2.432096
2.029108
1.482678
0.866115
0.278250
-0.231036
-0.674438
-1.076453
-1.420577
-1.637686
-1.643398
-1.410832
-1.021966
-0.637077
-0.408031
-0.411542
-0.627819
-0.947457
-1.205600
-1.256600
-1.064078
-0.728667
-0.405988
-0.189461
-0.080836
-0.051017
-0.092478
-0.218553
-0.440428
-0.752710
-1.134441
-1.550887
-1.940487
-2.215068
-2.311143
-2.255495
-2.161194
-2.131825
-2.161540
-2.145248
-1.987376
-1.675330
-1.247956
-0.734677
-0.151178
0.471247
1.089322
1.678927
2.234111
2.730156
3.106038
3.292319
3.259904
3.043111
2.713237
2.333275
1.937596
1.539132
1.140217
0.738107
0.324807
-0.123645
-0.652146
-1.290522
-1.990180
-2.608947
-2.986270
-3.050103
-2.855695
-2.533965
-2.211339
-1.959771
-1.792237
-1.680121
-1.569833
-1.408270
-1.183305
-0.954434
-0.840798
-0.961719
-1.371668
-2.044831
-2.915874
-3.925950
-5.021908
-6.116544
-7.067262
-7.708829
-7.917427
-7.654284
-6.967478
-5.966406
-4.770590
-3.451679
-2.031851
-0.542582
0.936543
2.301115
3.472608
4.424858
5.165461
5.709448
6.089017
6.373930
6.648079
6.942636
7.192100
7.278162
7.140477
6.843671
6.522935
6.263076
6.023830
5.665143
5.038725
4.074017
2.819423
1.432909
0.116868
-0.977697
-1.811191
-2.443197
-2.969315
-3.450662
-3.874997
-4.167517
-4.251988
-4.122091
-3.860578
-3.606772
-3.503920
-3.634644
-3.981643
-4.455559
-4.960395
-5.437521
-5.864557
-6.221582
-6.462077
-6.521033
-6.342571
-5.885813
-5.120841
-4.051623
-2.737409
-1.260132
0.331546
2.029163
3.816779
5.631322
7.381197
8.987991
10.380525
11.451788
12.070622
12.181343
11.879739
11.360196
10.789032
10.224670
9.622303
8.892026
7.977680
6.920081
5.859372
4.950735
4.251004
3.693766
3.178734
2.669789
2.194583
1.760095
1.300135
0.722853
-0.013969
-0.901414
-1.934672
-3.135149
-4.505523
-5.974398
-7.412357
-8.711566
-9.825467
-10.726819
-11.358387
-11.637252
-11.497879
-10.935167
-10.015135
-8.841769
-7.523038
-6.172692
-4.895843
-3.728369
-2.621099
-1.532720
-0.530095
0.238888
0.672690
0.793741
0.699274
0.469675
0.152620
-0.193008
-0.492320
-0.699209
-0.819418
-0.885075
-0.923841
-0.960283
-1.028927
-1.159293
-1.329652
-1.436186
-1.329559
-0.901786
-0.158614
0.774010
1.722822
2.563784
3.266656
3.881732
4.493982
5.150082
5.799912
6.318896
6.595959
6.591582
6.316297
5.786907
5.027271
4.096299
3.089798
2.095597
1.132914
0.148577
-0.907684
-2.004297
-3.025342
-3.846307
-4.411625
-4.744405
-4.896300
-4.891277
-4.711754
-4.329370
-3.745174
-3.013064
-2.229435
-1.483633
-0.802866
-0.151149
0.505009
1.137803
1.679907
2.093641
2.391840
2.589915
2.663493
2.574413
2.331136
1.994148
1.624225
1.256707
0.918582
0.640967
0.454816
0.382827
0.428474
0.568398
0.759285
0.960134
1.155549
1.353357
1.562233
1.778244
1.982709
2.145075
2.231092
2.220224
2.115657
1.919189
1.602333
1.121576
0.460031
-0.343835
-1.197813
-1.999164
-2.683487
-3.216036
-3.559421
-3.687065
-3.614797
-3.399505
-3.107520
-2.779462
-2.426735
-2.066271
-1.743068
-1.519554
-1.465104
-1.642189
-2.073380
-2.719835
-3.497288
-4.315795
-5.111188
-5.843833
-6.473712
-6.943703
-7.181608
-7.122847
-6.743447
-6.057402
-5.091515
-3.896330
-2.566568
-1.217889
0.064396
1.241611
2.280664
3.126538
3.737553
4.120398
4.298500
4.276421
4.073485
3.755163
3.406520
3.091104
2.822698
2.575223
2.332153
2.100658
1.877850
1.650731
1.423184
1.215156
1.044956
0.896039
0.707760
0.443098
0.142888
-0.106215
-0.215406
-0.117668
0.200045
0.685270
1.241766
1.761821
2.161453
2.399954
2.493027
2.529472
2.623106
2.809331
3.030447
3.225252
3.385291
3.533612
3.677647
3.777163
3.770248
3.637747
3.409570
3.111232
2.741048
2.298615
1.819882
1.373172
1.014083
0.757800
0.593119
0.497859
0.435937
0.353163
0.190070
-0.088402
-0.478752
-0.957569
-1.495021
-2.049583
-2.590884
-3.141645
-3.752911
-4.422510
-5.069404
-5.586110
-5.904013
-6.017009
-5.938771
-5.651306
-5.117989
-4.336289
-3.370864
-2.333266
-1.314519
-0.345015
0.573354
1.422978
2.164565
2.760216
3.205191
3.531216
3.769799
3.925225
3.989196
3.962605
3.857513
3.692199
3.480126
3.225679
2.939319
2.638564
2.324126
1.966789
1.524465
0.976728
0.353801
-0.274022
-0.839977
-1.298617
-1.626376
-1.835447
-1.966636
-2.059091
-2.134062
-2.195410
-2.232572
-2.234183
-2.214013
-2.208425
-2.238615
-2.302652
-2.403815
-2.548901
-2.720268
-2.869096
-2.930115
-2.851433
-2.631678
-2.325410
-2.005715
-1.723251
-1.492986
-1.313089
-1.190816
-1.138166
-1.144600
-1.169907
-1.170879
-1.137532
-1.107113
-1.133508
-1.238565
-1.400097
-1.580919
-1.757007
-1.910746
-2.003696
-1.978729
-1.795747
-1.447081
-0.944181
-0.312963
0.407487
1.174159
1.948626
2.709121
3.458243
4.212509
4.985397
5.768171
6.509632
7.132852
7.580088
7.823399
7.858139
7.713904
7.450236
7.123844
6.753412
6.311478
5.761734
5.110231
4.404968
3.692378
3.007195
2.382800
1.827060
1.312207
0.810588
0.319391
-0.146956
-0.580885
-1.008229
-1.479992
-2.028343
-2.637895
-3.250483
-3.792923
-4.208767
-4.476118
-4.615989
-4.675155
-4.683507
-4.624224
-4.435263
-4.052105
-3.467863
-2.750960
-2.007450
-1.334891
-0.797970
-0.418069
-0.181312
-0.057761
-0.012336
-0.008222
-0.005891
0.020344
0.052455
0.040475
-0.046100
-0.188212
-0.331404
-0.421463
-0.443265
-0.440522
-0.478014
-0.576905
-0.706464
-0.834011
-0.963469
-1.124188
-1.328894
-1.548376
-1.734720
-1.858805
-1.918410
-1.928893
-1.905520
-1.844015
-1.722376
-1.521036
-1.239219
-0.898596
-0.540509
-0.216411
0.035424
0.217570
0.368450
0.520049
0.677772
0.834697
0.980027
1.109284
1.244262
1.428812
1.690658
2.008015
2.327342
2.616383
2.885124
3.159486
3.447994
3.729191
3.966088
4.130623
4.204135
4.167609
4.013041
3.750136
3.391791
2.936391
2.367698
1.678950
0.889665
0.033620
-0.865425
-1.802743
-2.775635
-3.762340
-4.720846
-5.600570
-6.353635
-6.943904
-7.343613
-7.524757
-7.467901
-7.175959
-6.667088
-5.958158
-5.058655
-3.969387
-2.696558
-1.287305
0.163874
1.570982
2.910868
4.201188
5.433928
6.548879
7.467809
8.138750
8.547419
8.696627
8.583028
8.208527
7.609158
6.847245
5.976930
5.030158
4.022297
2.960671
1.858596
0.745974
-0.331791
-1.324857
-2.202872
-2.970501
-3.644648
-4.221542
-4.679794
-5.002977
-5.188597
-5.244871
-5.184625
-5.019851
-4.766691
-4.466659
-4.185765
-3.965248
-3.788790
-3.610626
-3.394170
-3.127885
-2.833899
-2.560233
-2.337529
-2.140600
-1.910130
-1.608371
-1.242712
-0.848632
-0.466992
-0.127014
0.164187
0.410684
0.611130
0.763565
0.875611
0.962640
1.042195
1.125244
1.207074
1.272182
1.312226
1.341167
1.391674
1.491318
1.640880
1.819467
2.010194
2.205139
2.387089
2.533014
2.630705
2.679765
2.687565
2.663131
2.612293
2.543017
2.470309
2.410800
2.367186
2.319598
2.245331
2.143610
2.031237
1.928301
1.855258
1.824137
1.819329
1.797394
1.721204
1.589177
1.419248
1.215584
0.972438
0.702618
0.429324
0.149973
-0.168446
-0.555013
-1.003810
-1.483475
-1.957716
-2.382027
-2.714313
-2.944041
-3.098623
-3.220346
-3.330035
-3.413487
-3.451448
-3.454336
-3.459617
-3.501012
-3.582477
-3.671787
-3.713966
-3.654557
-3.458920
-3.124837
-2.679149
-2.156257
-1.586998
-1.001979
-0.421547
0.151221
0.707789
1.215614
1.632083
1.928436
2.100159
2.157539
2.109135
1.962182
